

*******************************************************************************
Ephemeris / API_USER Fri Dec 17 03:22:56 2021 Pasadena, USA      / Horizons
*******************************************************************************
Target body name: Jupiter (599)                   {source: jup365_merged}
Center body name: Solar System Barycenter (0)     {source: DE441}
Center-site name: BODY CENTER
*******************************************************************************
Start time      : A.D. 2000-Jan-01 00:00:00.0000 TDB
Stop  time      : A.D. 2001-Dec-01 00:00:00.0000 TDB
Step-size       : 7000 steps
*******************************************************************************
Center geodetic : 0.00000000,0.00000000,0.0000000 {E-lon(deg),Lat(deg),Alt(km)}
Center cylindric: 0.00000000,0.00000000,0.0000000 {E-lon(deg),Dxy(km),Dz(km)}
Center radii    : (undefined)                                                  
Output units    : AU-D
Output type     : GEOMETRIC cartesian states
Output format   : 2 (position and velocity)
Reference frame : Ecliptic of J2000.0
*******************************************************************************
            JDTDB,            Calendar Date (TDB),                      X,                      Y,                      Z,                     VX,                     VY,                     VZ,
**************************************************************************************************************************************************************************************************
$$SOE
2451720.800000000, A.D. 2000-Jun-25 07:12:00.0000,  3.054070436567923E+00,  3.944824500952239E+00, -8.471861173349832E-02, -6.059341901948911E-03,  4.977254626775436E-03,  1.150255054913326E-04,
2451720.900000000, A.D. 2000-Jun-25 09:36:00.0000,  3.053464460663824E+00,  3.945322185267096E+00, -8.470710806745750E-02, -6.060180541613694E-03,  4.976423476478943E-03,  1.150474572119353E-04,
2451721.000000000, A.D. 2000-Jun-25 12:00:00.0000,  3.052858399905943E+00,  3.945819783907656E+00, -8.469560231233081E-02, -6.061035734397446E-03,  4.975540362704334E-03,  1.150673097919984E-04,
2451721.100000000, A.D. 2000-Jun-25 14:24:00.0000,  3.052252253627487E+00,  3.946317291563131E+00, -8.468409466681211E-02, -6.061887641025358E-03,  4.974604196934640E-03,  1.150853311336175E-04,
2451721.200000000, A.D. 2000-Jun-25 16:48:00.0000,  3.051646023122209E+00,  3.946814703174229E+00, -8.467258529041026E-02, -6.062717331974585E-03,  4.973621066916983E-03,  1.151020292734266E-04,
2451721.300000000, A.D. 2000-Jun-25 19:12:00.0000,  3.051039711422172E+00,  3.947312014624599E+00, -8.466107428235047E-02, -6.063509384083829E-03,  4.972603542768969E-03,  1.151180884805887E-04,
2451721.400000000, A.D. 2000-Jun-25 21:36:00.0000,  3.050433322831841E+00,  3.947809223312823E+00, -8.464956166838541E-02, -6.064254084601438E-03,  4.971569000029682E-03,  1.151342767442392E-04,
2451721.500000000, A.D. 2000-Jun-26 00:00:00.0000,  3.049826862278264E+00,  3.948306328515747E+00, -8.463804739775480E-02, -6.064948849576232E-03,  4.970537175987568E-03,  1.151513380006793E-04,
2451721.600000000, A.D. 2000-Jun-26 02:24:00.0000,  3.049220334569914E+00,  3.948803331484934E+00, -8.462653135096655E-02, -6.065598605372625E-03,  4.969527350904864E-03,  1.151698864823314E-04,
2451721.700000000, A.D. 2000-Jun-26 04:48:00.0000,  3.048613743672557E+00,  3.949300235261625E+00, -8.461501335730771E-02, -6.066215073177793E-03,  4.968555612326521E-03,  1.151903203145960E-04,
2451721.800000000, A.D. 2000-Jun-26 07:12:00.0000,  3.048007092107019E+00,  3.949797044239791E+00, -8.460349321947513E-02, -6.066815080653837E-03,  4.967632612012084E-03,  1.152127673394425E-04,
2451721.900000000, A.D. 2000-Jun-26 09:36:00.0000,  3.047400380553583E+00,  3.950293763542529E+00, -8.459197074168827E-02, -6.067418173389325E-03,  4.966762117954858E-03,  1.152370701041381E-04,
2451722.000000000, A.D. 2000-Jun-26 12:00:00.0000,  3.046793607714536E+00,  3.950790398302552E+00, -8.458044575728203E-02, -6.068043913337491E-03,  4.965940573560926E-03,  1.152628113289333E-04,
2451722.100000000, A.D. 2000-Jun-26 14:24:00.0000,  3.046186770443318E+00,  3.951286952954626E+00, -8.456891815185413E-02, -6.068709327392119E-03,  4.965157781568821E-03,  1.152893758464084E-04,
2451722.200000000, A.D. 2000-Jun-26 16:48:00.0000,  3.045579864103684E+00,  3.951783430644081E+00, -8.455738787897243E-02, -6.069426900502552E-03,  4.964398412275250E-03,  1.153160329571091E-04,
2451722.300000000, A.D. 2000-Jun-26 19:12:00.0000,  3.044972883106514E+00,  3.952279832775460E+00, -8.454585496812472E-02, -6.070203000923263E-03,  4.963643276639469E-03,  1.153420088875145E-04,
2451722.400000000, A.D. 2000-Jun-26 21:36:00.0000,  3.044365821535715E+00,  3.952776158773132E+00, -8.453431952387522E-02, -6.071037725857681E-03,  4.962872385297428E-03,  1.153665916753081E-04,
2451722.500000000, A.D. 2000-Jun-27 00:00:00.0000,  3.043758673850039E+00,  3.953272406084405E+00, -8.452278171543140E-02, -6.071923604390554E-03,  4.962066552153654E-03,  1.153892115966905E-04,
2451722.600000000, A.D. 2000-Jun-27 02:24:00.0000,  3.043151435538586E+00,  3.953768570379075E+00, -8.451124175977380E-02, -6.072847594024465E-03,  4.961209760774479E-03,  1.154094938237767E-04,
2451722.700000000, A.D. 2000-Jun-27 04:48:00.0000,  3.042544103661389E+00,  3.954264645969705E+00, -8.449969989878438E-02, -6.073791580843763E-03,  4.960291187497737E-03,  1.154273218561234E-04,
2451722.800000000, A.D. 2000-Jun-27 07:12:00.0000,  3.041936677257018E+00,  3.954760626409124E+00, -8.448815637215193E-02, -6.074734513746979E-03,  4.959306638104054E-03,  1.154428563584734E-04,
2451722.900000000, A.D. 2000-Jun-27 09:36:00.0000,  3.041329157513373E+00,  3.955256505194495E+00, -8.447661139001529E-02, -6.075654873260374E-03,  4.958259249172542E-03,  1.154565234089804E-04,
2451723.000000000, A.D. 2000-Jun-27 12:00:00.0000,  3.040721547688545E+00,  3.955752276503415E+00, -8.446506510819900E-02, -6.076533200685966E-03,  4.957159405992082E-03,  1.154689737561841E-04,
2451723.100000000, A.D. 2000-Jun-27 14:24:00.0000,  3.040113852778685E+00,  3.956247935876623E+00, -8.445351760913535E-02, -6.077354589349344E-03,  4.956023736590600E-03,  1.154810097228463E-04,
2451723.200000000, A.D. 2000-Jun-27 16:48:00.0000,  3.039506078953265E+00,  3.956743480751828E+00, -8.444196889154834E-02, -6.078110766577280E-03,  4.954873154386609E-03,  1.154934847899030E-04,
2451723.300000000, A.D. 2000-Jun-27 19:12:00.0000,  3.038898232822345E+00,  3.957238910762260E+00, -8.443041887095896E-02, -6.078801302110696E-03,  4.953730167736801E-03,  1.155071907389153E-04,
2451723.400000000, A.D. 2000-Jun-27 21:36:00.0000,  3.038290320640097E+00,  3.957734227747316E+00, -8.441886739126894E-02, -6.079433648975982E-03,  4.952615898839665E-03,  1.155227522507234E-04,
2451723.500000000, A.D. 2000-Jun-28 00:00:00.0000,  3.037682347563777E+00,  3.958229435472744E+00, -8.440731424572952E-02, -6.080022018706227E-03,  4.951547341520337E-03,  1.155405473597318E-04,
2451723.600000000, A.D. 2000-Jun-28 02:24:00.0000,  3.037074317073335E+00,  3.958724539107988E+00, -8.439575920403296E-02, -6.080585352466728E-03,  4.950535308253085E-03,  1.155606656095964E-04,
2451723.700000000, A.D. 2000-Jun-28 04:48:00.0000,  3.036466230622890E+00,  3.959219544544344E+00, -8.438420204154466E-02, -6.081144781694926E-03,  4.949583323023463E-03,  1.155829071808983E-04,
2451723.800000000, A.D. 2000-Jun-28 07:12:00.0000,  3.035858087554930E+00,  3.959714457652211E+00, -8.437264256671625E-02, -6.081720974176977E-03,  4.948687501922774E-03,  1.156068187629153E-04,
2451723.900000000, A.D. 2000-Jun-28 09:36:00.0000,  3.035249885271713E+00,  3.960209283571580E+00, -8.436108064343344E-02, -6.082331691288904E-03,  4.947837311515580E-03,  1.156317574810123E-04,
2451724.000000000, A.D. 2000-Jun-28 12:00:00.0000,  3.034641619629792E+00,  3.960704026115240E+00, -8.434951620597757E-02, -6.082989804071904E-03,  4.947017035298182E-03,  1.156569729260682E-04,
2451724.100000000, A.D. 2000-Jun-28 14:24:00.0000,  3.034033285501971E+00,  3.961198687346598E+00, -8.433794926528561E-02, -6.083701954605175E-03,  4.946207768152844E-03,  1.156816977149976E-04,
2451724.200000000, A.D. 2000-Jun-28 16:48:00.0000,  3.033424877435780E+00,  3.961693267374341E+00, -8.432637990612449E-02, -6.084467973599218E-03,  4.945389712409751E-03,  1.157052368808294E-04,
2451724.300000000, A.D. 2000-Jun-28 19:12:00.0000,  3.032816390332674E+00,  3.962187764378073E+00, -8.431480827583350E-02, -6.085281030266445E-03,  4.944544436484139E-03,  1.157270452886682E-04,
2451724.400000000, A.D. 2000-Jun-28 21:36:00.0000,  3.032207820081923E+00,  3.962682174843535E+00, -8.430323456629733E-02, -6.086128364425551E-03,  4.943656786857002E-03,  1.157467852139060E-04,
2451724.500000000, A.D. 2000-Jun-29 00:00:00.0000,  3.031599164089904E+00,  3.963176493988088E+00, -8.429165899072771E-02, -6.086992753031803E-03,  4.942717056592403E-03,  1.157643791386790E-04,
2451724.600000000, A.D. 2000-Jun-29 02:24:00.0000,  3.030990421616901E+00,  3.963670716396319E+00, -8.428008175619241E-02, -6.087854466181999E-03,  4.941722061325534E-03,  1.157800191609084E-04,
2451724.700000000, A.D. 2000-Jun-29 04:48:00.0000,  3.030381593943417E+00,  3.964164836683703E+00, -8.426850303741178E-02, -6.088693751283443E-03,  4.940675847093209E-03,  1.157941537776900E-04,
2451724.800000000, A.D. 2000-Jun-29 07:12:00.0000,  3.029772684188765E+00,  3.964658850214901E+00, -8.425692295408052E-02, -6.089493551149992E-03,  4.939589293397590E-03,  1.158074329882347E-04,
2451724.900000000, A.D. 2000-Jun-29 09:36:00.0000,  3.029163696963793E+00,  3.965152753744421E+00, -8.424534155348561E-02, -6.090241665864441E-03,  4.938478911348403E-03,  1.158206324641596E-04,
2451725.000000000, A.D. 2000-Jun-29 12:00:00.0000,  3.028554637764175E+00,  3.965646545861344E+00, -8.423375880387673E-02, -6.090932776870232E-03,  4.937364477291849E-03,  1.158345402260494E-04,
